[{"OBJECT_NAME":"OBJECT V","OBJECT_ID":"2023-085V","EPOCH":"2026-03-09T21:44:00.165408","MEAN_MOTION":15.30745852,"ECCENTRICITY":0.00069081,"INCLINATION":97.4843,"RA_OF_ASC_NODE":179.3833,"ARG_OF_PERICENTER":71.0503,"MEAN_ANOMALY":289.1485,"EPHEMERIS_TYPE":0,"CLASSIFICATION_TYPE":"U","NORAD_CAT_ID":57023,"ELEMENT_SET_NO":999,"REV_AT_EPOCH":15149,"BSTAR":0.00067780507,"MEAN_MOTION_DOT":0.00020109,"MEAN_MOTION_DDOT":0},{"OBJECT_NAME":"STARLINK-35129","OBJECT_ID":"2025-235V","EPOCH":"2026-03-09T17:08:49.359552","MEAN_MOTION":15.30211666,"ECCENTRICITY":0.00011276,"INCLINATION":53.1573,"RA_OF_ASC_NODE":245.2668,"ARG_OF_PERICENTER":24.1531,"MEAN_ANOMALY":335.9522,"EPHEMERIS_TYPE":0,"CLASSIFICATION_TYPE":"U","NORAD_CAT_ID":66077,"ELEMENT_SET_NO":999,"REV_AT_EPOCH":2292,"BSTAR":0.0012837578,"MEAN_MOTION_DOT":0.0003787,"MEAN_MOTION_DDOT":0}]
